NORAD_CAT_ID,OBJECT_NAME,OBJECT_TYPE,EPOCH,MEAN_MOTION,ECCENTRICITY,INCLINATION,RA_OF_ASC_NODE,ARG_OF_PERICENTER,MEAN_ANOMALY,BSTAR,MEAN_MOTION_DOT,MEAN_MOTION_DDOT,TLE_LINE0,TLE_LINE1,TLE_LINE2,SEMIMAJOR_AXIS,PERIOD,APOGEE,PERIGEE,DECAYED
51781.0,STARLINK-3580,PAYLOAD,2022-05-18 14:00:01,15.22735143,0.0001477,53.2174,104.4636,48.4678,305.9547,-0.033001,-0.00726849,0.0,0 STARLINK-3580,1 51781U 22017P   22138.58334491 -.00726849  00000-0 -33001-1 0  9993,2 51781  53.2174 104.4636 0001477  48.4678 305.9547 15.22735143  1306,6875.732,94.567,498.612,496.581,0.0
51781.0,STARLINK-3580,PAYLOAD,2022-05-18 22:00:00,15.22222597,0.0001676999999999,53.2175,102.9352,39.2992,343.1029,-0.033235,-0.00721359,0.0,0 STARLINK-3580,1 51781U 22017P   22138.91667824 -.00721359  00000-0 -33235-1 0  9999,2 51781  53.2175 102.9352 0001677  39.2992 343.1029 15.22222597  1307,6877.275,94.599,500.293,497.987,0.0
51781.0,STARLINK-3580,PAYLOAD,2022-05-19 14:00:01,15.21204225,0.0001626,53.2174,99.8838,42.3114,34.2726,-0.03443,-0.00724873,0.0,0 STARLINK-3580,1 51781U 22017P   22139.58335648 -.00724873  00000-0 -34430-1 0  9991,2 51781  53.2174  99.8838 0001626  42.3114  34.2726 15.21204225  1303,6880.344,94.662,503.328,501.09,0.0
51781.0,STARLINK-3580,PAYLOAD,2022-05-19 22:00:00,15.20692996,0.0001873,53.2175,98.359,37.1707,65.4909,-0.034808,-0.00722113,0.0,0 STARLINK-3580,1 51781U 22017P   22139.91667824 -.00722113  00000-0 -34808-1 0  9996,2 51781  53.2175  98.3590 0001873  37.1707  65.4909 15.20692996 14259,6881.886,94.694,505.04,502.462,0.0
51781.0,STARLINK-3580,PAYLOAD,2022-05-20 14:00:01,15.19674113,0.0001784,53.2174,95.3147,43.2171,109.8861,-0.035968,-0.00724075,0.0,0 STARLINK-3580,1 51781U 22017P   22140.58334491 -.00724075  00000-0 -35968-1 0  9999,2 51781  53.2174  95.3147 0001784  43.2171 109.8861 15.19674113  1308,6884.962,94.757,508.055,505.598,0.0
51781.0,STARLINK-3580,PAYLOAD,2022-05-20 22:00:00,15.19163401,0.0001814,53.2176,93.7937,44.1738,133.2319,-0.036423,-0.00722505,0.0,0 STARLINK-3580,1 51781U 22017P   22140.91667824 -.00722505  00000-0 -36423-1 0  9998,2 51781  53.2176  93.7937 0001814  44.1738 133.2319 15.19163401 14409,6886.505,94.789,509.619,507.12,0.0
51781.0,STARLINK-3580,PAYLOAD,2022-05-21 06:00:00,15.18652266,0.000197,53.2174,92.2759,40.2849,160.8096,-0.036882,-0.00720943,0.0,0 STARLINK-3580,1 51781U 22017P   22141.25001157 -.00720943  00000-0 -36882-1 0  9990,2 51781  53.2174  92.2759 0001970  40.2849 160.8096 15.18652266  1300,6888.05,94.821,511.272,508.5580000000001,0.0
51781.0,STARLINK-3580,PAYLOAD,2022-05-21 14:00:01,15.18144827,0.0001720999999999,53.2175,90.7561,47.242,176.9921,-0.037657,-0.00725011,0.0,0 STARLINK-3580,1 51781U 22017P   22141.58335648 -.00725011  00000-0 -37657-1 0  9993,2 51781  53.2175  90.7561 0001721  47.2420 176.9921 15.18144827  1305,6889.585,94.853,512.635,510.264,0.0
51781.0,STARLINK-3580,PAYLOAD,2022-05-21 20:00:01,15.17761605,0.0001811,53.2175,89.6177,43.0533,108.0231,-0.037991,-0.00723496,0.0,0 STARLINK-3580,1 51781U 22017P   22141.83334491 -.00723496  00000-0 -37991-1 0  9992,2 51781  53.2175  89.6177 0001811  43.0533 108.0231 15.17761605 14542,6890.744000000002,94.877,513.857,511.361,0.0
51781.0,STARLINK-3580,PAYLOAD,2022-05-21 22:00:00,15.17633656,0.000175,53.2175,89.23899999999998,46.583,200.0517,-0.03808,-0.00722574,0.0,0 STARLINK-3580,1 51781U 22017P   22141.91667824 -.00722574  00000-0 -38080-1 0  9996,2 51781  53.2175  89.2390 0001750  46.5830 200.0517 15.17633656  1309,6891.132,94.885,514.203,511.791,0.0
51781.0,STARLINK-3580,PAYLOAD,2022-05-22 14:00:01,15.16614919,0.0001679,53.2175,86.2085,45.2662,244.4572,-0.039364,-0.00725146,0.0,0 STARLINK-3580,1 51781U 22017P   22142.58334491 -.00725146  00000-0 -39364-1 0  9995,2 51781  53.2175  86.2085 0001679  45.2662 244.4572 15.16614919  1309,6894.217,94.948,517.24,514.925,0.0
51781.0,STARLINK-3580,PAYLOAD,2022-05-22 22:00:01,15.16104059,0.0001638,53.2176,84.6949,45.8536,264.5585,-0.039824,-0.00723095,0.0,0 STARLINK-3580,1 51781U 22017P   22142.91668981 -.00723095  00000-0 -39824-1 0  9998,2 51781  53.2176  84.6949 0001638  45.8536 264.5585 15.16104059 14717,6895.766,94.98,518.76,516.501,0.0
51781.0,STARLINK-3580,PAYLOAD,2022-05-23 14:00:01,15.15084161,0.0001597,53.2175,81.6715,43.9377,305.8236,-0.041056,-0.00723997,0.0,0 STARLINK-3580,1 51781U 22017P   22143.58334491 -.00723997  00000-0 -41056-1 0  9999,2 51781  53.2175  81.6715 0001597  43.9377 305.8236 15.15084161  1303,6898.86,95.044,521.827,519.623,0.0
51781.0,STARLINK-3580,PAYLOAD,2022-05-23 22:00:01,15.14574611,0.0001714,53.2177,80.1617,39.144,329.4669,-0.041663,-0.00724137,0.0,0 STARLINK-3580,1 51781U 22017P   22143.91668981 -.00724137  00000-0 -41663-1 0  9991,2 51781  53.2177  80.1617 0001714  39.1440 329.4669 15.14574611  1304,6900.406999999997,95.076,523.455,521.09,0.0
51781.0,STARLINK-3580,PAYLOAD,2022-05-24 06:00:02,15.14061882,0.0001598,53.2175,78.6544,44.62600000000001,342.1593,-0.042006,-0.00719857,0.0,0 STARLINK-3580,1 51781U 22017P   22144.25002315 -.00719857  00000-0 -42006-1 0  9997,2 51781  53.2175  78.6544 0001598  44.6260 342.1593 15.14061882 14914,6901.965,95.108,524.933,522.727,0.0
51781.0,STARLINK-3580,PAYLOAD,2022-05-24 12:13:16,15.14795361,0.0002657,53.2186,77.472,60.0455,300.0803,-0.0165389999999999,-0.00298487,0.0,0 STARLINK-3580,1 51781U 22017P   22144.50922148 -.00298487  00000-0 -16539-1 0  9993,2 51781  53.2186  77.4720 0002657  60.0455 300.0803 15.14795361 14951,6899.736999999999,95.062,523.435,519.769,0.0
51781.0,STARLINK-3580,PAYLOAD,2022-05-24 22:00:00,15.13044672,0.0001877,53.2177,75.6392,34.9158,26.316,-0.043525,-0.00724468,0.0,0 STARLINK-3580,1 51781U 22017P   22144.91667824 -.00724468  00000-0 -43525-1 0  9993,2 51781  53.2177  75.6392 0001877  34.9158  26.3160 15.13044672 15012,6905.058000000001,95.172,528.219,525.627,0.0
51781.0,STARLINK-3580,PAYLOAD,2022-05-25 14:00:01,15.12022555,0.0001686999999999,53.2175,72.6295,42.0659,51.2258,-0.044563,-0.00720991,0.0,0 STARLINK-3580,1 51781U 22017P   22145.58334491 -.00720991  00000-0 -44563-1 0  9998,2 51781  53.2175  72.6295 0001687  42.0659  51.2258 15.12022555  1301,6908.17,95.237,531.2,528.869,0.0
51781.0,STARLINK-3580,PAYLOAD,2022-05-25 22:00:00,15.11514297,0.0001898,53.2176,71.1272,37.7759,70.6251,-0.045395,-0.007239,0.0,0 STARLINK-3580,1 51781U 22017P   22145.91667824 -.00723900  00000-0 -45395-1 0  9991,2 51781  53.2176  71.1272 0001898  37.7759  70.6251 15.11514297  1303,6909.718000000003,95.269,532.895,530.2719999999998,0.0
51781.0,STARLINK-3580,PAYLOAD,2022-05-26 06:00:00,15.11000134,0.0001621,53.2173,69.6267,49.6617,73.2374,-0.045555,-0.00716607,0.0,0 STARLINK-3580,1 51781U 22017P   22146.25001157 -.00716607  00000-0 -45555-1 0  9994,2 51781  53.2173  69.6267 0001621  49.6617  73.2374 15.11000134 15215,6911.286,95.301,534.271,532.03,0.0
51781.0,STARLINK-3580,PAYLOAD,2022-05-26 14:00:01,15.10492296,0.0001739,53.2174,68.1244,43.9515,92.8324,-0.046452,-0.00720222,0.0,0 STARLINK-3580,1 51781U 22017P   22146.58334491 -.00720222  00000-0 -46452-1 0  9995,2 51781  53.2174  68.1244 0001739  43.9515  92.8324 15.10492296  1309,6912.835,95.333,535.9019999999998,533.497,0.0
51781.0,STARLINK-3580,PAYLOAD,2022-05-26 22:00:00,15.09983576,0.0001943,53.2176,66.6258,39.5082,110.5468,-0.047277,-0.00722595,0.0,0 STARLINK-3580,1 51781U 22017P   22146.91667824 -.00722595  00000-0 -47277-1 0  9992,2 51781  53.2176  66.6258 0001943  39.5082 110.5468 15.09983576  1307,6914.387,95.365,537.596,534.909,0.0
51781.0,STARLINK-3580,PAYLOAD,2022-05-27 02:06:53,15.10985388,0.0005029,53.219,65.8498,29.4136,330.7139,-0.012833,-0.00210802,0.0,0 STARLINK-3580,1 51781U 22017P   22147.08812293 -.00210802  00000-0 -12833-1 0  9996,2 51781  53.2190  65.8498 0005029  29.4136 330.7139 15.10985388 15342,6911.331,95.302,536.6709999999998,529.72,0.0
51781.0,STARLINK-3580,PAYLOAD,2022-05-27 14:00:01,15.08856168,0.0001735,53.2173,63.6297,43.7862,130.9855,-0.0019757,-0.00031608,0.0,0 STARLINK-3580,1 51781U 22017P   22147.58334491 -.00031608  00000-0 -19757-2 0  9998,2 51781  53.2173  63.6297 0001735  43.7862 130.9855 15.08856168  1307,6917.831,95.437,540.896,538.496,0.0
51781.0,STARLINK-3580,PAYLOAD,2022-05-27 16:00:00,15.0879203,0.0001754,53.2174,63.2508,48.8504,218.8847,0.0022512,0.00035675,0.0,0 STARLINK-3580,1 51781U 22017P   22147.66667824  .00035675  00000-0  22512-2 0  9995,2 51781  53.2174  63.2508 0001754  48.8504 218.8847 15.08792030 15432,6918.026999999999,95.441,541.105,538.679,0.0
51781.0,STARLINK-3580,PAYLOAD,2022-05-27 22:00:01,15.0886084,0.0001774,53.2178,62.1267,50.4626,136.0018,-0.00071849,-0.00011711,0.0,0 STARLINK-3580,1 51781U 22017P   22147.91668981 -.00011711  00000-0 -71849-3 0  9993,2 51781  53.2178  62.1267 0001774  50.4626 136.0018 15.08860840 15472,6917.816999999999,95.436,540.909,538.4540000000002,0.0
51781.0,STARLINK-3580,PAYLOAD,2022-05-28 14:00:01,15.08865424,0.0001625,53.2178,59.1331,48.548,161.0999,-0.0014494999999999,-0.00023299,0.0,0 STARLINK-3580,1 51781U 22017P   22148.58334491 -.00023299  00000-0 -14495-2 0  9990,2 51781  53.2178  59.1331 0001625  48.5480 161.0999 15.08865424  1307,6917.803000000001,95.436,540.7919999999998,538.544,0.0
51781.0,STARLINK-3580,PAYLOAD,2022-05-28 22:00:00,15.08870641,0.0001674,53.2181,57.6378,46.4743,174.7904,-0.0018824,-0.00030147,0.0,0 STARLINK-3580,1 51781U 22017P   22148.91667824 -.00030147  00000-0 -18824-2 0  9996,2 51781  53.2181  57.6378 0001674  46.4743 174.7904 15.08870641 15622,6917.7869999999975,95.436,540.81,538.494,0.0
51781.0,STARLINK-3580,PAYLOAD,2022-05-29 14:00:01,15.08818985,0.0001628,53.2183,54.6442,45.2655,199.1942,-6.8051e-05,-1.3699999999999998e-05,0.0,0 STARLINK-3580,1 51781U 22017P   22149.58334491 -.00001370  00000-0 -68051-4 0  9996,2 51781  53.2183  54.6442 0001628  45.2655 199.1942 15.08818985  1307,6917.945,95.439,540.936,538.683,0.0
